[{"OBJECT_NAME":"QIANFAN-21","OBJECT_ID":"2024-185C","EPOCH":"2026-03-09T23:11:03.920640","MEAN_MOTION":14.22734833,"ECCENTRICITY":0.00130039,"INCLINATION":88.9681,"RA_OF_ASC_NODE":66.7409,"ARG_OF_PERICENTER":81.1946,"MEAN_ANOMALY":279.0717,"EPHEMERIS_TYPE":0,"CLASSIFICATION_TYPE":"U","NORAD_CAT_ID":61554,"ELEMENT_SET_NO":999,"REV_AT_EPOCH":8237,"BSTAR":0.00034568137,"MEAN_MOTION_DOT":7.89e-6,"MEAN_MOTION_DDOT":0},{"OBJECT_NAME":"NOAA 16 DEB","OBJECT_ID":"2000-055DZ","EPOCH":"2026-03-08T08:20:12.060384","MEAN_MOTION":14.2240966,"ECCENTRICITY":0.00167897,"INCLINATION":98.6726,"RA_OF_ASC_NODE":116.7505,"ARG_OF_PERICENTER":120.7245,"MEAN_ANOMALY":239.5589,"EPHEMERIS_TYPE":0,"CLASSIFICATION_TYPE":"U","NORAD_CAT_ID":41220,"ELEMENT_SET_NO":999,"REV_AT_EPOCH":52785,"BSTAR":0.0019510118,"MEAN_MOTION_DOT":4.309e-5,"MEAN_MOTION_DDOT":0}]
